start=new Date('2021-09-20T00:00:00.000Z').valueOf();
sats=[{"OBJECT_NAME":"STARLINK-1414","TLE_LINE2":"2 45690  53.0019 181.9224 0002033  69.2882 290.8324 15.05591099 72904","RCS_SIZE":"LARGE","OBJECT_ID":"2020-035AK","PERIAPSIS":"548.285","BSTAR":"0.00010396000000","SITE":"AFETR","SEMIMAJOR_AXIS":"6927.829","RA_OF_ASC_NODE":"181.9224","OBJECT_TYPE":"PAYLOAD","NORAD_CAT_ID":"45690","MEAN_ANOMALY":"290.8324","GP_ID":"185054645","MEAN_MOTION_DDOT":"0.0000000000000","DECAY_DATE":null,"COUNTRY_CODE":"US","TLE_LINE1":"1 45690U 20035AK  21262.91795103  .00001236  00000-0  10396-3 0  9996","CLASSIFICATION_TYPE":"U","EPHEMERIS_TYPE":"0","REV_AT_EPOCH":"7290","PERIOD":"95.643","EPOCH":"2021-09-19T22:01:50.968992","TIME_SYSTEM":"UTC","FILE":"3120378","LAUNCH_DATE":"2020-06-04","APOAPSIS":"551.102","REF_FRAME":"TEME","MEAN_MOTION_DOT":"0.00001236","ELEMENT_SET_NO":"999","CENTER_NAME":"EARTH","ARG_OF_PERICENTER":"69.2882","INCLINATION":"53.0019","MEAN_ELEMENT_THEORY":"SGP4","ECCENTRICITY":"0.00020330","MEAN_MOTION":"15.05591099"},{"CENTER_NAME":"EARTH","ARG_OF_PERICENTER":"59.2079","ELEMENT_SET_NO":"999","MEAN_MOTION":"15.06395854","ECCENTRICITY":"0.00020030","INCLINATION":"53.0548","MEAN_ELEMENT_THEORY":"SGP4","TIME_SYSTEM":"UTC","PERIOD":"95.592","EPOCH":"2021-09-19T19:17:59.720352","REF_FRAME":"TEME","MEAN_MOTION_DOT":"-0.00000481","APOAPSIS":"548.613","LAUNCH_DATE":"2020-06-04","FILE":"3120378","TLE_LINE1":"1 45691U 20035AL  21262.80416343 -.00000481  00000-0 -13370-4 0  9990","COUNTRY_CODE":"US","REV_AT_EPOCH":"7291","EPHEMERIS_TYPE":"0","CLASSIFICATION_TYPE":"U","SITE":"AFETR","SEMIMAJOR_AXIS":"6925.361","BSTAR":"-0.00001337000000","RA_OF_ASC_NODE":"182.4472","TLE_LINE2":"2 45691  53.0548 182.4472 0002003  59.2079 300.9107 15.06395854 72912","RCS_SIZE":"LARGE","PERIAPSIS":"545.839","OBJECT_ID":"2020-035AL","OBJECT_NAME":"STARLINK-1415","GP_ID":"185054892","MEAN_MOTION_DDOT":"0.0000000000000","DECAY_DATE":null,"MEAN_ANOMALY":"300.9107","NORAD_CAT_ID":"45691","OBJECT_TYPE":"PAYLOAD"},{"OBJECT_NAME":"STARLINK-1416","RA_OF_ASC_NODE":"185.1627","SITE":"AFETR","SEMIMAJOR_AXIS":"6925.365","BSTAR":"-0.00003058800000","OBJECT_ID":"2020-035AM","PERIAPSIS":"545.890","TLE_LINE2":"2 45692  53.0549 185.1627 0001934  70.6727 289.4471 15.06394781 72817","RCS_SIZE":"LARGE","NORAD_CAT_ID":"45692","OBJECT_TYPE":"PAYLOAD","DECAY_DATE":null,"MEAN_MOTION_DDOT":"0.0000000000000","GP_ID":"185024102","MEAN_ANOMALY":"289.4471","COUNTRY_CODE":"US","TLE_LINE1":"1 45692U 20035AM  21262.19966896 -.00000737  00000-0 -30588-4 0  9990","CLASSIFICATION_TYPE":"U","REV_AT_EPOCH":"7281","EPHEMERIS_TYPE":"0","TIME_SYSTEM":"UTC","EPOCH":"2021-09-19T04:47:31.398144","PERIOD":"95.592","LAUNCH_DATE":"2020-06-04","FILE":"3120015","MEAN_MOTION_DOT":"-0.00000737","REF_FRAME":"TEME","APOAPSIS":"548.569","ELEMENT_SET_NO":"999","ARG_OF_PERICENTER":"70.6727","CENTER_NAME":"EARTH","ECCENTRICITY":"0.00019340","MEAN_ELEMENT_THEORY":"SGP4","INCLINATION":"53.0549","MEAN_MOTION":"15.06394781"},{"GP_ID":"185022850","MEAN_MOTION_DDOT":"0.0000000000000","DECAY_DATE":null,"MEAN_ANOMALY":"286.1520","OBJECT_TYPE":"PAYLOAD","NORAD_CAT_ID":"45693","SEMIMAJOR_AXIS":"6925.341","SITE":"AFETR","BSTAR":"-0.00000863670000","RA_OF_ASC_NODE":"183.8863","TLE_LINE2":"2 45693  53.0544 183.8863 0001942  73.9683 286.1520 15.06402389 72853","RCS_SIZE":"LARGE","OBJECT_ID":"2020-035AN","PERIAPSIS":"545.861","OBJECT_NAME":"STARLINK-1417","REV_AT_EPOCH":"7285","EPHEMERIS_TYPE":"0","CLASSIFICATION_TYPE":"U","TLE_LINE1":"1 45693U 20035AN  21262.48348554 -.00000410  00000-0 -86367-5 0  9993","COUNTRY_CODE":"US","REF_FRAME":"TEME","MEAN_MOTION_DOT":"-0.00000410","APOAPSIS":"548.551","LAUNCH_DATE":"2020-06-04","FILE":"3120015","TIME_SYSTEM":"UTC","PERIOD":"95.592","EPOCH":"2021-09-19T11:36:13.150656","MEAN_MOTION":"15.06402389","ECCENTRICITY":"0.00019420","INCLINATION":"53.0544","MEAN_ELEMENT_THEORY":"SGP4","CENTER_NAME":"EARTH","ARG_OF_PERICENTER":"73.9683","ELEMENT_SET_NO":"999"},{"CLASSIFICATION_TYPE":"U","REV_AT_EPOCH":"7285","EPHEMERIS_TYPE":"0","COUNTRY_CODE":"US","TLE_LINE1":"1 45694U 20035AP  21262.49086270 -.00000122  00000-0  10701-4 0  9996","OBJECT_TYPE":"PAYLOAD","NORAD_CAT_ID":"45694","MEAN_MOTION_DDOT":"0.0000000000000","GP_ID":"185023600","DECAY_DATE":null,"MEAN_ANOMALY":"294.4071","OBJECT_NAME":"STARLINK-1419","SEMIMAJOR_AXIS":"6925.364","SITE":"AFETR","RA_OF_ASC_NODE":"183.8491","BSTAR":"0.00001070100000","TLE_LINE2":"2 45694  53.0536 183.8491 0001969  65.7123 294.4071 15.06394869 72855","RCS_SIZE":"LARGE","PERIAPSIS":"545.866","OBJECT_ID":"2020-035AP","ECCENTRICITY":"0.00019690","INCLINATION":"53.0536","MEAN_ELEMENT_THEORY":"SGP4","MEAN_MOTION":"15.06394869","ELEMENT_SET_NO":"999","CENTER_NAME":"EARTH","ARG_OF_PERICENTER":"65.7123","LAUNCH_DATE":"2020-06-04","FILE":"3120015","REF_FRAME":"TEME","MEAN_MOTION_DOT":"-0.00000122","APOAPSIS":"548.593","TIME_SYSTEM":"UTC","PERIOD":"95.592","EPOCH":"2021-09-19T11:46:50.537280"},{"TIME_SYSTEM":"UTC","EPOCH":"2021-09-19T21:12:06.618816","PERIOD":"95.592","MEAN_MOTION_DOT":"0.00001036","REF_FRAME":"TEME","APOAPSIS":"548.563","LAUNCH_DATE":"2020-06-04","FILE":"3120378","ARG_OF_PERICENTER":"70.5955","CENTER_NAME":"EARTH","ELEMENT_SET_NO":"999","MEAN_MOTION":"15.06402644","ECCENTRICITY":"0.00019600","MEAN_ELEMENT_THEORY":"SGP4","INCLINATION":"53.0535","RA_OF_ASC_NODE":"162.0873","SITE":"AFETR","SEMIMAJOR_AXIS":"6925.340","BSTAR":"0.00008841800000","OBJECT_ID":"2020-035AQ","PERIAPSIS":"545.848","RCS_SIZE":"LARGE","TLE_LINE2":"2 45695  53.0535 162.0873 0001960  70.5955 289.5246 15.06402644 73206","OBJECT_NAME":"STARLINK-1420","DECAY_DATE":null,"MEAN_MOTION_DDOT":"0.0000000000000","GP_ID":"185054393","MEAN_ANOMALY":"289.5246","OBJECT_TYPE":"PAYLOAD","NORAD_CAT_ID":"45695","TLE_LINE1":"1 45695U 20035AQ  21262.88340994  .00001036  00000-0  88418-4 0  9990","COUNTRY_CODE":"US","REV_AT_EPOCH":"7320","EPHEMERIS_TYPE":"0","CLASSIFICATION_TYPE":"U"},{"COUNTRY_CODE":"US","TLE_LINE1":"1 45696U 20035AR  21262.49455081 -.00000394  00000-0 -75426-5 0  9996","CLASSIFICATION_TYPE":"U","EPHEMERIS_TYPE":"0","REV_AT_EPOCH":"7285","OBJECT_NAME":"STARLINK-1422","OBJECT_ID":"2020-035AR","PERIAPSIS":"546.044","RCS_SIZE":"LARGE","TLE_LINE2":"2 45696  53.0538 183.8335 0001730  61.7074 298.4089 15.06390819 72857","SITE":"AFETR","SEMIMAJOR_AXIS":"6925.377","BSTAR":"-0.00000754260000","RA_OF_ASC_NODE":"183.8335","OBJECT_TYPE":"PAYLOAD","NORAD_CAT_ID":"45696","MEAN_ANOMALY":"298.4089","DECAY_DATE":null,"MEAN_MOTION_DDOT":"0.0000000000000","GP_ID":"185024602","ELEMENT_SET_NO":"999","CENTER_NAME":"EARTH","ARG_OF_PERICENTER":"61.7074","MEAN_ELEMENT_THEORY":"SGP4","INCLINATION":"53.0538","ECCENTRICITY":"0.00017300","MEAN_MOTION":"15.06390819","EPOCH":"2021-09-19T11:52:09.189984","PERIOD":"95.593","TIME_SYSTEM":"UTC","FILE":"3120015","LAUNCH_DATE":"2020-06-04","APOAPSIS":"548.440","MEAN_MOTION_DOT":"-0.00000394","REF_FRAME":"TEME"},{"EPHEMERIS_TYPE":"0","REV_AT_EPOCH":"7320","CLASSIFICATION_TYPE":"U","TLE_LINE1":"1 45697U 20035AS  21262.86866666 -.00000862  00000-0 -38977-4 0  9992","COUNTRY_CODE":"US","MEAN_ANOMALY":"298.7306","DECAY_DATE":null,"MEAN_MOTION_DDOT":"0.0000000000000","GP_ID":"185055395","OBJECT_TYPE":"PAYLOAD","NORAD_CAT_ID":"45697","OBJECT_ID":"2020-035AS","PERIAPSIS":"545.886","TLE_LINE2":"2 45697  53.0533 162.1510 0001936  61.3878 298.7306 15.06395673 73202","RCS_SIZE":"LARGE","SITE":"AFETR","RA_OF_ASC_NODE":"162.1510","SEMIMAJOR_AXIS":"6925.362","BSTAR":"-0.00003897700000","OBJECT_NAME":"STARLINK-1351","MEAN_MOTION":"15.06395673","MEAN_ELEMENT_THEORY":"SGP4","INCLINATION":"53.0533","ECCENTRICITY":"0.00019360","ARG_OF_PERICENTER":"61.3878","CENTER_NAME":"EARTH","ELEMENT_SET_NO":"999","APOAPSIS":"548.568","MEAN_MOTION_DOT":"-0.00000862","REF_FRAME":"TEME","FILE":"3120378","LAUNCH_DATE":"2020-06-04","EPOCH":"2021-09-19T20:50:52.799424","PERIOD":"95.592","TIME_SYSTEM":"UTC"},{"PERIOD":"95.592","EPOCH":"2021-09-19T11:01:42.824352","TIME_SYSTEM":"UTC","FILE":"3120015","LAUNCH_DATE":"2020-06-04","APOAPSIS":"548.640","REF_FRAME":"TEME","MEAN_MOTION_DOT":"0.00001548","ELEMENT_SET_NO":"999","ARG_OF_PERICENTER":"69.0282","CENTER_NAME":"EARTH","INCLINATION":"53.0560","MEAN_ELEMENT_THEORY":"SGP4","ECCENTRICITY":"0.00020820","MEAN_MOTION":"15.06404987","OBJECT_NAME":"STARLINK-1370","TLE_LINE2":"2 45698  53.0560 163.9978 0002082  69.0282 291.0929 15.06404987 73146","RCS_SIZE":"LARGE","PERIAPSIS":"545.756","OBJECT_ID":"2020-035AT","RA_OF_ASC_NODE":"163.9978","SITE":"AFETR","SEMIMAJOR_AXIS":"6925.333","BSTAR":"0.00012280000000","OBJECT_TYPE":"PAYLOAD","NORAD_CAT_ID":"45698","MEAN_ANOMALY":"291.0929","MEAN_MOTION_DDOT":"0.0000000000000","GP_ID":"185023101","DECAY_DATE":null,"COUNTRY_CODE":"US","TLE_LINE1":"1 45698U 20035AT  21262.45952343  .00001548  00000-0  12280-3 0  9994","CLASSIFICATION_TYPE":"U","EPHEMERIS_TYPE":"0","REV_AT_EPOCH":"7314"},{"COUNTRY_CODE":"US","TLE_LINE1":"1 45699U 20035AU  21262.91290087  .00001247  00000-0  10259-3 0  9996","CLASSIFICATION_TYPE":"U","REV_AT_EPOCH":"7320","EPHEMERIS_TYPE":"0","OBJECT_NAME":"STARLINK-1398","BSTAR":"0.00010259000000","SITE":"AFETR","SEMIMAJOR_AXIS":"6925.347","RA_OF_ASC_NODE":"161.9535","OBJECT_ID":"2020-035AU","PERIAPSIS":"545.750","TLE_LINE2":"2 45699  53.0532 161.9535 0002111  69.7728 290.3488 15.06400631 73209","RCS_SIZE":"LARGE","NORAD_CAT_ID":"45699","OBJECT_TYPE":"PAYLOAD","DECAY_DATE":null,"GP_ID":"185054893","MEAN_MOTION_DDOT":"0.0000000000000","MEAN_ANOMALY":"290.3488","ELEMENT_SET_NO":"999","CENTER_NAME":"EARTH","ARG_OF_PERICENTER":"69.7728","ECCENTRICITY":"0.00021110","MEAN_ELEMENT_THEORY":"SGP4","INCLINATION":"53.0532","MEAN_MOTION":"15.06400631","TIME_SYSTEM":"UTC","EPOCH":"2021-09-19T21:54:34.635168","PERIOD":"95.592","LAUNCH_DATE":"2020-06-04","FILE":"3120378","MEAN_MOTION_DOT":"0.00001247","REF_FRAME":"TEME","APOAPSIS":"548.674"}];
